[{"OBJECT_NAME":"SBIRS GEO-3 (USA 282)","OBJECT_ID":"2018-009A","EPOCH":"2023-04-26T20:22:18.436800","MEAN_MOTION":1.00272823,"ECCENTRICITY":0.0001908,"INCLINATION":2.975,"RA_OF_ASC_NODE":323.7353,"ARG_OF_PERICENTER":62.1243,"MEAN_ANOMALY":273.2924,"EPHEMERIS_TYPE":0,"CLASSIFICATION_TYPE":"U","NORAD_CAT_ID":43162,"ELEMENT_SET_NO":999,"REV_AT_EPOCH":1933,"BSTAR":0,"MEAN_MOTION_DOT":-2.97e-6,"MEAN_MOTION_DDOT":0},{"OBJECT_NAME":"AL YAH 3","OBJECT_ID":"2018-012A","EPOCH":"2023-04-26T19:36:39.216384","MEAN_MOTION":1.00271142,"ECCENTRICITY":0.0002429,"INCLINATION":0.15,"RA_OF_ASC_NODE":93.222,"ARG_OF_PERICENTER":338.2533,"MEAN_ANOMALY":57.1361,"EPHEMERIS_TYPE":0,"CLASSIFICATION_TYPE":"U","NORAD_CAT_ID":43174,"ELEMENT_SET_NO":999,"REV_AT_EPOCH":1934,"BSTAR":0,"MEAN_MOTION_DOT":-1.57e-6,"MEAN_MOTION_DDOT":0},{"OBJECT_NAME":"SES-14","OBJECT_ID":"2018-012B","EPOCH":"2023-04-26T19:28:44.761152","MEAN_MOTION":1.00270875,"ECCENTRICITY":8.82e-5,"INCLINATION":0.0144,"RA_OF_ASC_NODE":301.8611,"ARG_OF_PERICENTER":75.7381,"MEAN_ANOMALY":81.6356,"EPHEMERIS_TYPE":0,"CLASSIFICATION_TYPE":"U","NORAD_CAT_ID":43175,"ELEMENT_SET_NO":999,"REV_AT_EPOCH":1956,"BSTAR":0,"MEAN_MOTION_DOT":-2.8e-6,"MEAN_MOTION_DDOT":0},{"OBJECT_NAME":"GOES 17","OBJECT_ID":"2018-022A","EPOCH":"2023-04-27T05:11:29.353344","MEAN_MOTION":1.00272237,"ECCENTRICITY":0.0001722,"INCLINATION":0.0097,"RA_OF_ASC_NODE":76.0603,"ARG_OF_PERICENTER":341.7283,"MEAN_ANOMALY":130.2884,"EPHEMERIS_TYPE":0,"CLASSIFICATION_TYPE":"U","NORAD_CAT_ID":43226,"ELEMENT_SET_NO":999,"REV_AT_EPOCH":1893,"BSTAR":0,"MEAN_MOTION_DOT":-9.2e-7,"MEAN_MOTION_DDOT":0},{"OBJECT_NAME":"HISPASAT 30W-6","OBJECT_ID":"2018-023A","EPOCH":"2023-04-26T19:33:46.001664","MEAN_MOTION":1.00271593,"ECCENTRICITY":0.0005948,"INCLINATION":0.0486,"RA_OF_ASC_NODE":54.5695,"ARG_OF_PERICENTER":343.4075,"MEAN_ANOMALY":80.0245,"EPHEMERIS_TYPE":0,"CLASSIFICATION_TYPE":"U","NORAD_CAT_ID":43228,"ELEMENT_SET_NO":999,"REV_AT_EPOCH":1894,"BSTAR":0,"MEAN_MOTION_DOT":-2.18e-6,"MEAN_MOTION_DDOT":0},{"OBJECT_NAME":"SUPERBIRD-B3","OBJECT_ID":"2018-033A","EPOCH":"2023-04-26T20:57:42.719904","MEAN_MOTION":1.00271546,"ECCENTRICITY":0.0001049,"INCLINATION":0.0163,"RA_OF_ASC_NODE":243.4223,"ARG_OF_PERICENTER":132.3089,"MEAN_ANOMALY":315.2891,"EPHEMERIS_TYPE":0,"CLASSIFICATION_TYPE":"U","NORAD_CAT_ID":43271,"ELEMENT_SET_NO":999,"REV_AT_EPOCH":1854,"BSTAR":0,"MEAN_MOTION_DOT":-9.4e-7,"MEAN_MOTION_DDOT":0},{"OBJECT_NAME":"HYLAS 4","OBJECT_ID":"2018-033B","EPOCH":"2023-04-26T19:32:45.754080","MEAN_MOTION":1.0027223,"ECCENTRICITY":0.0001763,"INCLINATION":0.0711,"RA_OF_ASC_NODE":268.9872,"ARG_OF_PERICENTER":129.1178,"MEAN_ANOMALY":76.1348,"EPHEMERIS_TYPE":0,"CLASSIFICATION_TYPE":"U","NORAD_CAT_ID":43272,"ELEMENT_SET_NO":999,"REV_AT_EPOCH":1857,"BSTAR":0,"MEAN_MOTION_DOT":-2.35e-6,"MEAN_MOTION_DDOT":0},{"OBJECT_NAME":"IRNSS-1I","OBJECT_ID":"2018-035A","EPOCH":"2023-04-26T00:12:42.663168","MEAN_MOTION":1.00274003,"ECCENTRICITY":0.0019293,"INCLINATION":28.9576,"RA_OF_ASC_NODE":92.2882,"ARG_OF_PERICENTER":187.761,"MEAN_ANOMALY":351.8663,"EPHEMERIS_TYPE":0,"CLASSIFICATION_TYPE":"U","NORAD_CAT_ID":43286,"ELEMENT_SET_NO":999,"REV_AT_EPOCH":1856,"BSTAR":0,"MEAN_MOTION_DOT":1.03e-6,"MEAN_MOTION_DDOT":0},{"OBJECT_NAME":"USA 283","OBJECT_ID":"2018-036A","EPOCH":"2023-04-23T12:39:06.185952","MEAN_MOTION":1.00271097,"ECCENTRICITY":4.33e-5,"INCLINATION":0.0026,"RA_OF_ASC_NODE":259.1042,"ARG_OF_PERICENTER":87.5802,"MEAN_ANOMALY":188.4917,"EPHEMERIS_TYPE":0,"CLASSIFICATION_TYPE":"U","NORAD_CAT_ID":43339,"ELEMENT_SET_NO":999,"REV_AT_EPOCH":720,"BSTAR":0,"MEAN_MOTION_DOT":-3.2e-6,"MEAN_MOTION_DDOT":0},{"OBJECT_NAME":"COSMOS 2526","OBJECT_ID":"2018-037A","EPOCH":"2023-04-27T08:21:46.321056","MEAN_MOTION":1.00272074,"ECCENTRICITY":0.0001019,"INCLINATION":0.0217,"RA_OF_ASC_NODE":124.9819,"ARG_OF_PERICENTER":338.8608,"MEAN_ANOMALY":4.74,"EPHEMERIS_TYPE":0,"CLASSIFICATION_TYPE":"U","NORAD_CAT_ID":43432,"ELEMENT_SET_NO":999,"REV_AT_EPOCH":1846,"BSTAR":0,"MEAN_MOTION_DOT":-3.46e-6,"MEAN_MOTION_DDOT":0},{"OBJECT_NAME":"APSTAR 6C","OBJECT_ID":"2018-041A","EPOCH":"2023-04-26T18:37:32.097216","MEAN_MOTION":1.00269899,"ECCENTRICITY":0.0001162,"INCLINATION":0.0321,"RA_OF_ASC_NODE":280.3827,"ARG_OF_PERICENTER":126.2482,"MEAN_ANOMALY":221.2544,"EPHEMERIS_TYPE":0,"CLASSIFICATION_TYPE":"U","NORAD_CAT_ID":43450,"ELEMENT_SET_NO":999,"REV_AT_EPOCH":1832,"BSTAR":0,"MEAN_MOTION_DOT":-3.2e-6,"MEAN_MOTION_DDOT":0},{"OBJECT_NAME":"BANGABANDHUSAT-1","OBJECT_ID":"2018-044A","EPOCH":"2023-04-26T20:50:35.873664","MEAN_MOTION":1.00269791,"ECCENTRICITY":0.0002049,"INCLINATION":0.0081,"RA_OF_ASC_NODE":230.3622,"ARG_OF_PERICENTER":156.1908,"MEAN_ANOMALY":259.7799,"EPHEMERIS_TYPE":0,"CLASSIFICATION_TYPE":"U","NORAD_CAT_ID":43463,"ELEMENT_SET_NO":999,"REV_AT_EPOCH":1820,"BSTAR":0,"MEAN_MOTION_DOT":-3.65e-6,"MEAN_MOTION_DDOT":0},{"OBJECT_NAME":"SES-12","OBJECT_ID":"2018-049A","EPOCH":"2023-04-26T20:36:51.299712","MEAN_MOTION":1.00271026,"ECCENTRICITY":0.0001602,"INCLINATION":0.0413,"RA_OF_ASC_NODE":69.9098,"ARG_OF_PERICENTER":234.6305,"MEAN_ANOMALY":314.2597,"EPHEMERIS_TYPE":0,"CLASSIFICATION_TYPE":"U","NORAD_CAT_ID":43488,"ELEMENT_SET_NO":999,"REV_AT_EPOCH":1791,"BSTAR":0,"MEAN_MOTION_DOT":-2.72e-6,"MEAN_MOTION_DDOT":0},{"OBJECT_NAME":"FENGYUN 2H","OBJECT_ID":"2018-050A","EPOCH":"2023-04-26T20:28:50.585664","MEAN_MOTION":1.00274253,"ECCENTRICITY":0.0002309,"INCLINATION":1.9462,"RA_OF_ASC_NODE":91.7832,"ARG_OF_PERICENTER":69.6047,"MEAN_ANOMALY":79.5883,"EPHEMERIS_TYPE":0,"CLASSIFICATION_TYPE":"U","NORAD_CAT_ID":43491,"ELEMENT_SET_NO":999,"REV_AT_EPOCH":1793,"BSTAR":0,"MEAN_MOTION_DOT":-1.3e-6,"MEAN_MOTION_DDOT":0},{"OBJECT_NAME":"BEIDOU-2 IGSO-7","OBJECT_ID":"2018-057A","EPOCH":"2023-04-26T13:38:42.832320","MEAN_MOTION":1.00270872,"ECCENTRICITY":0.0059978,"INCLINATION":55.1006,"RA_OF_ASC_NODE":172.9791,"ARG_OF_PERICENTER":230.1486,"MEAN_ANOMALY":128.4141,"EPHEMERIS_TYPE":0,"CLASSIFICATION_TYPE":"U","NORAD_CAT_ID":43539,"ELEMENT_SET_NO":999,"REV_AT_EPOCH":1764,"BSTAR":0,"MEAN_MOTION_DOT":-1.13e-6,"MEAN_MOTION_DDOT":0},{"OBJECT_NAME":"TELSTAR 19V","OBJECT_ID":"2018-059A","EPOCH":"2023-04-26T17:41:03.130656","MEAN_MOTION":1.00271162,"ECCENTRICITY":0.0001562,"INCLINATION":0.0197,"RA_OF_ASC_NODE":187.9787,"ARG_OF_PERICENTER":276.9769,"MEAN_ANOMALY":311.7928,"EPHEMERIS_TYPE":0,"CLASSIFICATION_TYPE":"U","NORAD_CAT_ID":43562,"ELEMENT_SET_NO":999,"REV_AT_EPOCH":1763,"BSTAR":0,"MEAN_MOTION_DOT":-2.82e-6,"MEAN_MOTION_DDOT":0},{"OBJECT_NAME":"TELKOM 4 (MERAH PUTIH)","OBJECT_ID":"2018-064A","EPOCH":"2023-04-27T12:24:12.756384","MEAN_MOTION":1.0027073,"ECCENTRICITY":0.0001778,"INCLINATION":0.0112,"RA_OF_ASC_NODE":256.6037,"ARG_OF_PERICENTER":169.4114,"MEAN_ANOMALY":83.2765,"EPHEMERIS_TYPE":0,"CLASSIFICATION_TYPE":"U","NORAD_CAT_ID":43587,"ELEMENT_SET_NO":999,"REV_AT_EPOCH":1736,"BSTAR":0,"MEAN_MOTION_DOT":-3.45e-6,"MEAN_MOTION_DDOT":0}]
