SBIRS GEO-3 (USA 282)   
1 43162U 18009A   23116.84882450 -.00000297  00000+0  00000+0 0  9993
2 43162   2.9750 323.7353 0001908  62.1243 273.2924  1.00272823 19333
AL YAH 3                
1 43174U 18012A   23116.81712056 -.00000157  00000+0  00000+0 0  9996
2 43174   0.1500  93.2220 0002429 338.2533  57.1361  1.00271142 19347
SES-14                  
1 43175U 18012B   23116.81162918 -.00000280  00000+0  00000+0 0  9990
2 43175   0.0144 301.8611 0000882  75.7381  81.6356  1.00270875 19560
GOES 17                 
1 43226U 18022A   23117.21631196 -.00000092  00000+0  00000+0 0  9993
2 43226   0.0097  76.0603 0001722 341.7283 130.2884  1.00272237 18938
HISPASAT 30W-6          
1 43228U 18023A   23116.81511576 -.00000218  00000+0  00000+0 0  9990
2 43228   0.0486  54.5695 0005948 343.4075  80.0245  1.00271593 18944
SUPERBIRD-B3            
1 43271U 18033A   23116.87341111 -.00000094  00000+0  00000+0 0  9993
2 43271   0.0163 243.4223 0001049 132.3089 315.2891  1.00271546 18542
HYLAS 4                 
1 43272U 18033B   23116.81441845 -.00000235  00000+0  00000+0 0  9990
2 43272   0.0711 268.9872 0001763 129.1178  76.1348  1.00272230 18574
IRNSS-1I                
1 43286U 18035A   23116.00882712  .00000103  00000+0  00000+0 0  9993
2 43286  28.9576  92.2882 0019293 187.7610 351.8663  1.00274003 18566
USA 283                 
1 43339U 18036A   23113.52715493 -.00000320  00000+0  00000+0 0  9990
2 43339   0.0026 259.1042 0000433  87.5802 188.4917  1.00271097  7209
COSMOS 2526             
1 43432U 18037A   23117.34845279 -.00000346  00000+0  00000+0 0  9993
2 43432   0.0217 124.9819 0001019 338.8608   4.7400  1.00272074 18466
APSTAR 6C               
1 43450U 18041A   23116.77606594 -.00000320  00000+0  00000+0 0  9991
2 43450   0.0321 280.3827 0001162 126.2482 221.2544  1.00269899 18327
BANGABANDHUSAT-1        
1 43463U 18044A   23116.86847076 -.00000365  00000+0  00000+0 0  9999
2 43463   0.0081 230.3622 0002049 156.1908 259.7799  1.00269791 18208
SES-12                  
1 43488U 18049A   23116.85892708 -.00000272  00000+0  00000+0 0  9999
2 43488   0.0413  69.9098 0001602 234.6305 314.2597  1.00271026 17918
FENGYUN 2H              
1 43491U 18050A   23116.85336326 -.00000130  00000+0  00000+0 0  9997
2 43491   1.9462  91.7832 0002309  69.6047  79.5883  1.00274253 17935
BEIDOU-2 IGSO-7         
1 43539U 18057A   23116.56855130 -.00000113  00000+0  00000+0 0  9995
2 43539  55.1006 172.9791 0059978 230.1486 128.4141  1.00270872 17647
TELSTAR 19V             
1 43562U 18059A   23116.73684179 -.00000282  00000+0  00000+0 0  9992
2 43562   0.0197 187.9787 0001562 276.9769 311.7928  1.00271162 17634
TELKOM 4 (MERAH PUTIH)  
1 43587U 18064A   23117.51681431 -.00000345  00000+0  00000+0 0  9990
2 43587   0.0112 256.6037 0001778 169.4114  83.2765  1.00270730 17369
